{
  "type": "FeatureCollection",
  "features": [
    {
      "type": "Feature",
      "properties": {
        "norad_id": 41581,
        "name": "INTELSAT 31 (IS-31)",
        "group": "intelsat",
        "lat": 0.021238626031957232,
        "lon": 81.19918037359007,
        "alt_km": 35790.59999470417,
        "timestamp": "2025-12-21T05:44:51.243808+00:00",
        "meta_object_name": "INTELSAT 31 (IS-31)",
        "meta_object_id": "2016-035A",
        "meta_epoch": "2025-12-20T14:29:23.871264",
        "meta_mean_motion": 1.00271704,
        "meta_eccentricity": 0.00019976,
        "meta_inclination": 0.0288,
        "meta_ra_of_asc_node": 267.9464,
        "meta_arg_of_pericenter": 295.2319,
        "meta_mean_anomaly": 8.5584,
        "meta_ephemeris_type": 0,
        "meta_classification_type": "U",
        "meta_norad_cat_id": 41581,
        "meta_element_set_no": 999,
        "meta_rev_at_epoch": 3489,
        "meta_bstar": 0,
        "meta_mean_motion_dot": -1.27e-06,
        "meta_mean_motion_ddot": 0,
        "tle_line1": "1 41581U 16035A   25354.60374851 -.00000127  00000+0  00000+0 0  9996",
        "tle_line2": "2 41581   0.0288 267.9464 0001997 295.2319   8.5584  1.00271704 34890"
      },
      "geometry": {
        "type": "Point",
        "coordinates": [
          81.19918037359007,
          0.021238626031957232
        ]
      }
    },
    {
      "type": "Feature",
      "properties": {
        "norad_id": 41747,
        "name": "INTELSAT 36 (IS-36)",
        "group": "intelsat",
        "lat": -0.034645856928476056,
        "lon": -115.25699264372619,
        "alt_km": 35785.781302942,
        "timestamp": "2025-12-21T05:44:51.243820+00:00",
        "meta_object_name": "INTELSAT 36 (IS-36)",
        "meta_object_id": "2016-053A",
        "meta_epoch": "2025-12-20T13:09:38.733408",
        "meta_mean_motion": 1.00271779,
        "meta_eccentricity": 0.00011803,
        "meta_inclination": 0.0114,
        "meta_ra_of_asc_node": 2.7331,
        "meta_arg_of_pericenter": 328.9558,
        "meta_mean_anomaly": 23.5927,
        "meta_ephemeris_type": 0,
        "meta_classification_type": "U",
        "meta_norad_cat_id": 41747,
        "meta_element_set_no": 999,
        "meta_rev_at_epoch": 3415,
        "meta_bstar": 0,
        "meta_mean_motion_dot": -1e-08,
        "meta_mean_motion_ddot": 0,
        "tle_line1": "1 41747U 16053A   25354.54836497 -.00000001  00000+0  00000+0 0  9993",
        "tle_line2": "2 41747   0.0114   2.7331 0001180 328.9558  23.5927  1.00271779 34152"
      },
      "geometry": {
        "type": "Point",
        "coordinates": [
          -115.25699264372619,
          -0.034645856928476056
        ]
      }
    },
    {
      "type": "Feature",
      "properties": {
        "norad_id": 41945,
        "name": "INTELSAT 32E (IS-32E)",
        "group": "intelsat",
        "lat": 0.03869022279522244,
        "lon": 133.09543033917166,
        "alt_km": 35786.02870787762,
        "timestamp": "2025-12-21T05:44:51.243832+00:00",
        "meta_object_name": "INTELSAT 32E (IS-32E)",
        "meta_object_id": "2017-007B",
        "meta_epoch": "2025-12-20T16:26:45.777984",
        "meta_mean_motion": 1.00271211,
        "meta_eccentricity": 4.749e-05,
        "meta_inclination": 0.029,
        "meta_ra_of_asc_node": 71.8228,
        "meta_arg_of_pericenter": 338.6559,
        "meta_mean_anomaly": 242.5522,
        "meta_ephemeris_type": 0,
        "meta_classification_type": "U",
        "meta_norad_cat_id": 41945,
        "meta_element_set_no": 999,
        "meta_rev_at_epoch": 3243,
        "meta_bstar": 0,
        "meta_mean_motion_dot": -2.46e-06,
        "meta_mean_motion_ddot": 0,
        "tle_line1": "1 41945U 17007B   25354.68525206 -.00000246  00000+0  00000+0 0  9992",
        "tle_line2": "2 41945   0.0290  71.8228 0000474 338.6559 242.5522  1.00271211 32437"
      },
      "geometry": {
        "type": "Point",
        "coordinates": [
          133.09543033917166,
          0.03869022279522244
        ]
      }
    },
    {
      "type": "Feature",
      "properties": {
        "norad_id": 42818,
        "name": "INTELSAT 35E (IS-35E)",
        "group": "intelsat",
        "lat": 0.0339442888512688,
        "lon": 141.761099698523,
        "alt_km": 35791.47778840189,
        "timestamp": "2025-12-21T05:44:51.243843+00:00",
        "meta_object_name": "INTELSAT 35E (IS-35E)",
        "meta_object_id": "2017-041A",
        "meta_epoch": "2025-12-20T21:37:33.782016",
        "meta_mean_motion": 1.00270913,
        "meta_eccentricity": 0.0001849,
        "meta_inclination": 0.0174,
        "meta_ra_of_asc_node": 24.2941,
        "meta_arg_of_pericenter": 248.3288,
        "meta_mean_anomaly": 107.0078,
        "meta_ephemeris_type": 0,
        "meta_classification_type": "U",
        "meta_norad_cat_id": 42818,
        "meta_element_set_no": 999,
        "meta_rev_at_epoch": 3102,
        "meta_bstar": 0,
        "meta_mean_motion_dot": -2.15e-06,
        "meta_mean_motion_ddot": 0,
        "tle_line1": "1 42818U 17041A   25354.90108544 -.00000215  00000+0  00000+0 0  9993",
        "tle_line2": "2 42818   0.0174  24.2941 0001849 248.3288 107.0078  1.00270913 31028"
      },
      "geometry": {
        "type": "Point",
        "coordinates": [
          141.761099698523,
          0.0339442888512688
        ]
      }
    },
    {
      "type": "Feature",
      "properties": {
        "norad_id": 42950,
        "name": "INTELSAT 37E (IS-37E)",
        "group": "intelsat",
        "lat": 0.003329167046096977,
        "lon": 158.2364108682502,
        "alt_km": 35788.067154555116,
        "timestamp": "2025-12-21T05:44:51.243855+00:00",
        "meta_object_name": "INTELSAT 37E (IS-37E)",
        "meta_object_id": "2017-059A",
        "meta_epoch": "2025-12-20T21:42:18.326592",
        "meta_mean_motion": 1.00274265,
        "meta_eccentricity": 0.00028108,
        "meta_inclination": 0.0047,
        "meta_ra_of_asc_node": 88.6458,
        "meta_arg_of_pericenter": 172.4544,
        "meta_mean_anomaly": 136.206,
        "meta_ephemeris_type": 0,
        "meta_classification_type": "U",
        "meta_norad_cat_id": 42950,
        "meta_element_set_no": 999,
        "meta_rev_at_epoch": 3027,
        "meta_bstar": 0,
        "meta_mean_motion_dot": -1.17e-06,
        "meta_mean_motion_ddot": 0,
        "tle_line1": "1 42950U 17059A   25354.90437878 -.00000117  00000+0  00000+0 0  9995",
        "tle_line2": "2 42950   0.0047  88.6458 0002810 172.4544 136.2060  1.00274265 30277"
      },
      "geometry": {
        "type": "Point",
        "coordinates": [
          158.2364108682502,
          0.003329167046096977
        ]
      }
    },
    {
      "type": "Feature",
      "properties": {
        "norad_id": 43632,
        "name": "AZERSPACE 2 (IS-38)",
        "group": "intelsat",
        "lat": -0.01941182680268395,
        "lon": -138.63094610548197,
        "alt_km": 35782.980271520624,
        "timestamp": "2025-12-21T05:44:51.243867+00:00",
        "meta_object_name": "AZERSPACE 2 (IS-38)",
        "meta_object_id": "2018-074A",
        "meta_epoch": "2025-12-20T17:47:21.491808",
        "meta_mean_motion": 1.0027107,
        "meta_eccentricity": 0.00011604,
        "meta_inclination": 0.0009,
        "meta_ra_of_asc_node": 355.7052,
        "meta_arg_of_pericenter": 274.3723,
        "meta_mean_anomaly": 131.4463,
        "meta_ephemeris_type": 0,
        "meta_classification_type": "U",
        "meta_norad_cat_id": 43632,
        "meta_element_set_no": 999,
        "meta_rev_at_epoch": 2665,
        "meta_bstar": 0,
        "meta_mean_motion_dot": 1.6e-06,
        "meta_mean_motion_ddot": 0,
        "tle_line1": "1 43632U 18074A   25354.74122097  .00000160  00000+0  00000+0 0  9994",
        "tle_line2": "2 43632   0.0009 355.7052 0001160 274.3723 131.4463  1.00271070 26651"
      },
      "geometry": {
        "type": "Point",
        "coordinates": [
          -138.63094610548197,
          -0.01941182680268395
        ]
      }
    },
    {
      "type": "Feature",
      "properties": {
        "norad_id": 43633,
        "name": "HORIZONS-3E",
        "group": "intelsat",
        "lat": 0.003734692748870205,
        "lon": -14.759680546086482,
        "alt_km": 35783.85002125361,
        "timestamp": "2025-12-21T05:44:51.243879+00:00",
        "meta_object_name": "HORIZONS-3E",
        "meta_object_id": "2018-074B",
        "meta_epoch": "2025-12-20T14:02:03.988032",
        "meta_mean_motion": 1.00269138,
        "meta_eccentricity": 7.67e-05,
        "meta_inclination": 0.009,
        "meta_ra_of_asc_node": 233.4534,
        "meta_arg_of_pericenter": 88.2799,
        "meta_mean_anomaly": 147.176,
        "meta_ephemeris_type": 0,
        "meta_classification_type": "U",
        "meta_norad_cat_id": 43633,
        "meta_element_set_no": 999,
        "meta_rev_at_epoch": 2655,
        "meta_bstar": 0,
        "meta_mean_motion_dot": 0,
        "meta_mean_motion_ddot": 0,
        "tle_line1": "1 43633U 18074B   25354.58476838  .00000000  00000+0  00000+0 0  9995",
        "tle_line2": "2 43633   0.0090 233.4534 0000767  88.2799 147.1760  1.00269138 26551"
      },
      "geometry": {
        "type": "Point",
        "coordinates": [
          -14.759680546086482,
          0.003734692748870205
        ]
      }
    }
  ]
}